*******************************************************************************
Ephemeris / WWW_USER Mon Jul 15 19:34:47 2024 Pasadena, USA      / Horizons    
*******************************************************************************
Target body name: (2015 BP519)                    {source: JPL#11}
Center body name: Earth (399)                     {source: DE441}
Center-site name: Gemini South Obs., Cerro Pachon
*******************************************************************************
Start time      : A.D. 2018-Nov-12 23:23:00.0000 UT      
Stop  time      : A.D. 2018-Nov-13 09:30:00.0000 UT      
Step-size       : 1 minutes
*******************************************************************************
Target pole/equ : undefined
Target radii    : undefined                                                    
Center geodetic : 289.2634, -30.2406227, 2.71233  {E-lon(deg),Lat(deg),Alt(km)}
Center cylindric: 289.2634,5517.21435,-3194.81213 {E-lon(deg),Dxy(km),Dz(km)}
Center pole/equ : ITRF93                          {East-longitude positive}
Center radii    : 6378.137, 6378.137, 6356.752 km {Equator_a, b, pole_c}       
Target primary  : Sun
Vis. interferer : MOON (R_eq= 1737.400) km        {source: DE441}
Rel. light bend : Sun                             {source: DE441}
Rel. lght bnd GM: 1.3271E+11 km^3/s^2                                          
Small-body perts: Yes                             {source: SB441-N16}
Atmos refraction: NO (AIRLESS)
RA format       : HMS
Time format     : CAL 
Calendar mode   : Mixed Julian/Gregorian
RTS-only print  : NO       
EOP file        : eop.240715.p241008                                           
EOP coverage    : DATA-BASED 1962-JAN-20 TO 2024-JUL-15. PREDICTS-> 2024-OCT-07
Units conversion: 1 au= 149597870.700 km, c= 299792.458 km/s, 1 day= 86400.0 s 
Table cut-offs 1: Elevation (-90.0deg=NO ),Airmass (>38.000=NO), Daylight (YES)
Table cut-offs 2: Solar elongation (  0.0,180.0=NO ),Local Hour Angle( 0.0=NO )
Table cut-offs 3: RA/DEC angular rate (     0.0=NO )                           
*******************************************************************************
Initial IAU76/J2000 heliocentric ecliptic osculating elements (au, days, deg.):
  EPOCH=  2459185.5 ! 2020-Dec-02.00 (TDB)         Residual RMS= .076636       
   EC= .9196800569382362   QR= 35.27062259520413   TP= 2473034.2681888649      
   OM= 135.0361763364557   W=  348.1354702472351   IN= 54.13300168900849       
  Equivalent ICRF heliocentric cartesian coordinates (au, au/d):
   X= 1.527332710437156E+01  Y= 4.057000090505051E+01  Z=-2.695001507835700E+01
  VX=-2.654302427537234E-03 VY= 4.512065776218028E-05 VZ= 1.968031006040699E-03
Asteroid physical parameters (km, seconds, rotational period in hours):        
   GM= n.a.                RAD= n.a.               ROTPER= n.a.                
   H= 4.34                 G= .150                 B-V= n.a.                   
                           ALBEDO= n.a.            STYP= n.a.                  
*******************************************************************************
 Date__(UT)__HR:MN     R.A._________(ICRF)_________DEC
******************************************************
$$SOE
 2018-Nov-13 07:35     04 29 20.334969 -33 38 36.75869
 2018-Nov-13 07:36     04 29 20.331846 -33 38 36.77150
 2018-Nov-13 07:37     04 29 20.328722 -33 38 36.78430
 2018-Nov-13 07:38     04 29 20.325599 -33 38 36.79709
 2018-Nov-13 07:39     04 29 20.322476 -33 38 36.80989
 2018-Nov-13 07:40     04 29 20.319353 -33 38 36.82269
 2018-Nov-13 07:41     04 29 20.316231 -33 38 36.83548
 2018-Nov-13 07:42     04 29 20.313108 -33 38 36.84827
 2018-Nov-13 07:43     04 29 20.309985 -33 38 36.86106
 2018-Nov-13 07:44     04 29 20.306863 -33 38 36.87385
 2018-Nov-13 07:45     04 29 20.303740 -33 38 36.88663
 2018-Nov-13 07:46     04 29 20.300618 -33 38 36.89942
 2018-Nov-13 07:47     04 29 20.297496 -33 38 36.91220
 2018-Nov-13 07:48     04 29 20.294373 -33 38 36.92498
 2018-Nov-13 07:49     04 29 20.291251 -33 38 36.93776
 2018-Nov-13 07:50     04 29 20.288129 -33 38 36.95053
 2018-Nov-13 07:51     04 29 20.285008 -33 38 36.96331
 2018-Nov-13 07:52     04 29 20.281886 -33 38 36.97608
 2018-Nov-13 07:53     04 29 20.278764 -33 38 36.98885
 2018-Nov-13 07:54     04 29 20.275643 -33 38 37.00162
 2018-Nov-13 07:55     04 29 20.272521 -33 38 37.01439
 2018-Nov-13 07:56     04 29 20.269400 -33 38 37.02716
 2018-Nov-13 07:57     04 29 20.266279 -33 38 37.03992
 2018-Nov-13 07:58     04 29 20.263158 -33 38 37.05268
 2018-Nov-13 07:59     04 29 20.260037 -33 38 37.06544
 2018-Nov-13 08:00     04 29 20.256916 -33 38 37.07820
 2018-Nov-13 08:01     04 29 20.253795 -33 38 37.09096
 2018-Nov-13 08:02     04 29 20.250674 -33 38 37.10372
 2018-Nov-13 08:03     04 29 20.247554 -33 38 37.11647
 2018-Nov-13 08:04     04 29 20.244434 -33 38 37.12922
 2018-Nov-13 08:05     04 29 20.241313 -33 38 37.14197
 2018-Nov-13 08:06     04 29 20.238193 -33 38 37.15472
 2018-Nov-13 08:07     04 29 20.235073 -33 38 37.16747
 2018-Nov-13 08:08     04 29 20.231953 -33 38 37.18022
 2018-Nov-13 08:09     04 29 20.228833 -33 38 37.19296
 2018-Nov-13 08:10 A   04 29 20.225713 -33 38 37.20570
 2018-Nov-13 08:11 A   04 29 20.222594 -33 38 37.21844
 2018-Nov-13 08:12 A   04 29 20.219474 -33 38 37.23118
 2018-Nov-13 08:13 A   04 29 20.216355 -33 38 37.24392
 2018-Nov-13 08:14 A   04 29 20.213236 -33 38 37.25665
 2018-Nov-13 08:15 A   04 29 20.210117 -33 38 37.26939
 2018-Nov-13 08:16 A   04 29 20.206998 -33 38 37.28212
 2018-Nov-13 08:17 A   04 29 20.203879 -33 38 37.29485
 2018-Nov-13 08:18 A   04 29 20.200760 -33 38 37.30758
 2018-Nov-13 08:19 A   04 29 20.197641 -33 38 37.32030
 2018-Nov-13 08:20 A   04 29 20.194523 -33 38 37.33303
 2018-Nov-13 08:21 A   04 29 20.191405 -33 38 37.34575
 2018-Nov-13 08:22 A   04 29 20.188286 -33 38 37.35848
 2018-Nov-13 08:23 A   04 29 20.185168 -33 38 37.37120
 2018-Nov-13 08:24 A   04 29 20.182050 -33 38 37.38392
 2018-Nov-13 08:25 A   04 29 20.178932 -33 38 37.39663
 2018-Nov-13 08:26 A   04 29 20.175815 -33 38 37.40935
 2018-Nov-13 08:27 A   04 29 20.172697 -33 38 37.42206
 2018-Nov-13 08:28 A   04 29 20.169580 -33 38 37.43477
 2018-Nov-13 08:29 A   04 29 20.166462 -33 38 37.44748
 2018-Nov-13 08:30 A   04 29 20.163345 -33 38 37.46019
 2018-Nov-13 08:31 A   04 29 20.160228 -33 38 37.47290
 2018-Nov-13 08:32 A   04 29 20.157111 -33 38 37.48561
 2018-Nov-13 08:33 A   04 29 20.153994 -33 38 37.49831
 2018-Nov-13 08:34 A   04 29 20.150878 -33 38 37.51101
 2018-Nov-13 08:35 A   04 29 20.147761 -33 38 37.52371
 2018-Nov-13 08:36 A   04 29 20.144645 -33 38 37.53641
 2018-Nov-13 08:37 A   04 29 20.141529 -33 38 37.54911
 2018-Nov-13 08:38 A   04 29 20.138413 -33 38 37.56181
 2018-Nov-13 08:39 A   04 29 20.135297 -33 38 37.57450
 2018-Nov-13 08:40 A   04 29 20.132181 -33 38 37.58720
 2018-Nov-13 08:41 A   04 29 20.129065 -33 38 37.59989
 2018-Nov-13 08:42 A   04 29 20.125950 -33 38 37.61258
 2018-Nov-13 08:43 N   04 29 20.122834 -33 38 37.62527
 2018-Nov-13 08:44 N   04 29 20.119719 -33 38 37.63795
 2018-Nov-13 08:45 N   04 29 20.116604 -33 38 37.65064
 2018-Nov-13 08:46 N   04 29 20.113489 -33 38 37.66332
 2018-Nov-13 08:47 N   04 29 20.110374 -33 38 37.67600
 2018-Nov-13 08:48 N   04 29 20.107260 -33 38 37.68868
 2018-Nov-13 08:49 N   04 29 20.104145 -33 38 37.70136
 2018-Nov-13 08:50 N   04 29 20.101031 -33 38 37.71404
 2018-Nov-13 08:51 N   04 29 20.097916 -33 38 37.72672
 2018-Nov-13 08:52 N   04 29 20.094802 -33 38 37.73939
 2018-Nov-13 08:53 N   04 29 20.091688 -33 38 37.75207
 2018-Nov-13 08:54 N   04 29 20.088575 -33 38 37.76474
 2018-Nov-13 08:55 N   04 29 20.085461 -33 38 37.77741
 2018-Nov-13 08:56 N   04 29 20.082348 -33 38 37.79008
 2018-Nov-13 08:57 N   04 29 20.079234 -33 38 37.80274
 2018-Nov-13 08:58 N   04 29 20.076121 -33 38 37.81541
 2018-Nov-13 08:59 N   04 29 20.073008 -33 38 37.82807
 2018-Nov-13 09:00 N   04 29 20.069895 -33 38 37.84074
 2018-Nov-13 09:01 N   04 29 20.066783 -33 38 37.85340
 2018-Nov-13 09:02 N   04 29 20.063670 -33 38 37.86606
 2018-Nov-13 09:03 N   04 29 20.060558 -33 38 37.87872
 2018-Nov-13 09:04 N   04 29 20.057446 -33 38 37.89137
 2018-Nov-13 09:05 N   04 29 20.054334 -33 38 37.90403
 2018-Nov-13 09:06 N   04 29 20.051222 -33 38 37.91668
 2018-Nov-13 09:07 N   04 29 20.048110 -33 38 37.92934
 2018-Nov-13 09:08 N   04 29 20.044998 -33 38 37.94199
 2018-Nov-13 09:09 N   04 29 20.041887 -33 38 37.95464
 2018-Nov-13 09:10 N   04 29 20.038776 -33 38 37.96728
 2018-Nov-13 09:11 N   04 29 20.035665 -33 38 37.97993
 2018-Nov-13 09:12 N   04 29 20.032554 -33 38 37.99258
 2018-Nov-13 09:13 N   04 29 20.029443 -33 38 38.00522
 2018-Nov-13 09:14 C   04 29 20.026332 -33 38 38.01786
 2018-Nov-13 09:15 C   04 29 20.023222 -33 38 38.03051
 2018-Nov-13 09:16 C   04 29 20.020111 -33 38 38.04315
 2018-Nov-13 09:17 C   04 29 20.017001 -33 38 38.05578
 2018-Nov-13 09:18 C   04 29 20.013891 -33 38 38.06842
 2018-Nov-13 09:19 C   04 29 20.010782 -33 38 38.08106
 2018-Nov-13 09:20 C   04 29 20.007672 -33 38 38.09369
 2018-Nov-13 09:21 C   04 29 20.004563 -33 38 38.10632
 2018-Nov-13 09:22 C   04 29 20.001453 -33 38 38.11896
 2018-Nov-13 09:23 C   04 29 19.998344 -33 38 38.13159
 2018-Nov-13 09:24 C   04 29 19.995235 -33 38 38.14422
 2018-Nov-13 09:25 C   04 29 19.992126 -33 38 38.15684
 2018-Nov-13 09:26 C   04 29 19.989018 -33 38 38.16947
 2018-Nov-13 09:27 C   04 29 19.985909 -33 38 38.18210
 2018-Nov-13 09:28 C   04 29 19.982801 -33 38 38.19472
 2018-Nov-13 09:29 C   04 29 19.979693 -33 38 38.20734
 2018-Nov-13 09:30 C   04 29 19.976585 -33 38 38.21996
